{
"type": "FeatureCollection",
"name": "wetlands_aoi",
"crs": { "type": "name", "properties": { "name": "urn:ogc:def:crs:OGC:1.3:CRS84" } },
"features": [
{ "type": "Feature", "properties": { "wetland_id": "p1", "nombre": "Sitio P1", "fuente": "data/huasco/vector/sitios_huasco.gpkg" }, "geometry": { "type": "Polygon", "coordinates": [ [ [ -68.831146893607098, -20.270830236564201 ], [ -68.835676550191806, -20.269551844524901 ], [ -68.838791499802696, -20.2781107826134 ], [ -68.8341190748787, -20.279389104101199 ], [ -68.831146893607098, -20.270830236564201 ] ] ] } },
{ "type": "Feature", "properties": { "wetland_id": "p2", "nombre": "Sitio P2", "fuente": "data/huasco/vector/sitios_huasco.gpkg" }, "geometry": { "type": "Polygon", "coordinates": [ [ [ -68.801037621851705, -20.310284780729699 ], [ -68.801307650545098, -20.315737788160099 ], [ -68.807122268168996, -20.315442351512299 ], [ -68.806861240301799, -20.310014657809202 ], [ -68.801037621851705, -20.310284780729699 ] ] ] } },
{ "type": "Feature", "properties": { "wetland_id": "p3", "nombre": "Sitio P3", "fuente": "data/huasco/vector/sitios_huasco.gpkg" }, "geometry": { "type": "Polygon", "coordinates": [ [ [ -68.801516887228502, -20.290612362191101 ], [ -68.800131454011606, -20.293969892857401 ], [ -68.803783230971305, -20.295036475452999 ], [ -68.805192688979901, -20.2916714568704 ], [ -68.801516887228502, -20.290612362191101 ] ] ] } },
{ "type": "Feature", "properties": { "wetland_id": "p4", "nombre": "Sitio P4", "fuente": "data/huasco/vector/sitios_huasco.gpkg" }, "geometry": { "type": "Polygon", "coordinates": [ [ [ -68.839589962747397, -20.327859252305501 ], [ -68.834811891711794, -20.327802894026199 ], [ -68.834731756036703, -20.332320895853599 ], [ -68.839509827835599, -20.3323678598348 ], [ -68.839589962747397, -20.327859252305501 ] ] ] } },
{ "type": "Feature", "properties": { "wetland_id": "p5", "nombre": "Sitio P5", "fuente": "data/huasco/vector/sitios_huasco.gpkg" }, "geometry": { "type": "Polygon", "coordinates": [ [ [ -68.8529614069476, -20.324287123194001 ], [ -68.857869821026398, -20.324306835392498 ], [ -68.857806758045399, -20.329757193387199 ], [ -68.852908854329996, -20.329688203012399 ], [ -68.8529614069476, -20.324287123194001 ] ] ] } },
{ "type": "Feature", "properties": { "wetland_id": "p6", "nombre": "Sitio P6", "fuente": "data/huasco/vector/sitios_huasco.gpkg" }, "geometry": { "type": "Polygon", "coordinates": [ [ [ -68.892353971914801, -20.2906670274152 ], [ -68.887598513579604, -20.290558414855099 ], [ -68.887499091202798, -20.2951345640938 ], [ -68.892284492843302, -20.295134564115401 ], [ -68.892353971914801, -20.2906670274152 ] ] ] } },
{ "type": "Feature", "properties": { "wetland_id": "p7", "nombre": "Sitio P7 (H3)", "fuente": "data/huasco/vector/sitios_huasco.gpkg" }, "geometry": { "type": "Polygon", "coordinates": [ [ [ -68.8900219617815, -20.2805599438318 ], [ -68.886632774948097, -20.2805935255642 ], [ -68.887563608263505, -20.285977717093601 ], [ -68.890940860613497, -20.2858993617075 ], [ -68.8900219617815, -20.2805599438318 ] ] ] } }
]
}
